[{"OBJECT_NAME":"STARLINK-34962","OBJECT_ID":"2025-179P","EPOCH":"2026-03-09T15:50:23.034912","MEAN_MOTION":15.05654089,"ECCENTRICITY":9.012e-5,"INCLINATION":97.6032,"RA_OF_ASC_NODE":112.9309,"ARG_OF_PERICENTER":99.4001,"MEAN_ANOMALY":260.7328,"EPHEMERIS_TYPE":0,"CLASSIFICATION_TYPE":"U","NORAD_CAT_ID":65248,"ELEMENT_SET_NO":999,"REV_AT_EPOCH":3182,"BSTAR":0.00025081066,"MEAN_MOTION_DOT":3.56e-5,"MEAN_MOTION_DDOT":0},{"OBJECT_NAME":"SL-16 DEB","OBJECT_ID":"1992-093CH","EPOCH":"2026-03-09T20:51:36.974880","MEAN_MOTION":14.88689084,"ECCENTRICITY":0.0074931,"INCLINATION":70.8861,"RA_OF_ASC_NODE":315.1013,"ARG_OF_PERICENTER":150.6914,"MEAN_ANOMALY":290.361,"EPHEMERIS_TYPE":0,"CLASSIFICATION_TYPE":"U","NORAD_CAT_ID":22392,"ELEMENT_SET_NO":999,"REV_AT_EPOCH":74900,"BSTAR":0.00054238016,"MEAN_MOTION_DOT":5.266e-5,"MEAN_MOTION_DDOT":0}]
